OBJECT_NAME,OBJECT_ID,EPOCH,MEAN_MOTION,ECCENTRICITY,INCLINATION,RA_OF_ASC_NODE,ARG_OF_PERICENTER,MEAN_ANOMALY,EPHEMERIS_TYPE,CLASSIFICATION_TYPE,NORAD_CAT_ID,ELEMENT_SET_NO,REV_AT_EPOCH,BSTAR,MEAN_MOTION_DOT,MEAN_MOTION_DDOT
JILIN-01 KUANFU 02B 1,2024-169A,2026-05-24T04:12:05.940864,15.08688407,.0004254,97.5565,234.0638,117.2084,242.9578,0,U,61189,999,9220,.17518E-3,.2683E-4,0
JILIN-01 KUANFU 02B 2,2024-169B,2026-05-24T05:16:24.144960,15.08645897,.0008136,97.5554,233.4998,97.9335,262.2817,0,U,61190,999,9221,.16172E-3,.2471E-4,0
JILIN-01 KUANFU 02B 3,2024-169C,2026-05-24T05:31:27.240096,15.08701632,.0014397,97.5552,233.9419,36.6294,323.5916,0,U,61191,999,9221,.15866E-3,.243E-4,0
JILIN-01 KUANFU 02B 4,2024-169D,2026-05-24T04:45:03.330144,15.08661739,.0012965,97.5516,233.4623,354.0698,6.0375,0,U,61192,999,9221,.22355E-3,.3444E-4,0
JILIN-01 KUANFU 02B 5,2024-169E,2026-05-24T04:28:34.068288,15.08718259,.0013466,97.5566,234.2126,19.3021,340.8715,0,U,61193,999,9221,.19997E-3,.308E-4,0
JILIN-01 KUANFU 02B 6,2024-169F,2026-05-24T05:00:45.796032,15.08675732,.0017541,97.5542,234.1434,48.1775,312.0948,0,U,61194,999,9222,.19014E-3,.2926E-4,0
TIANQI-29,2024-170A,2026-05-24T03:03:40.523904,13.99139271,.0005587,44.8569,244.0011,327.7763,32.2726,0,U,61195,999,8549,.12623E-3,.56E-6,0
TIANQI-30,2024-170B,2026-05-24T03:29:39.325920,13.99138438,.0007274,44.8583,244.1764,337.4703,22.5807,0,U,61196,999,8568,.12943E-3,.61E-6,0
TIANQI-31,2024-170C,2026-05-24T03:56:47.311872,13.99130807,.0007775,44.8620,244.4677,314.7684,45.2514,0,U,61197,999,8558,.12401E-3,.53E-6,0
TIANQI-32,2024-170D,2026-05-24T04:19:54.740352,13.99154303,.0007924,44.8605,244.4939,311.4957,48.5194,0,U,61198,999,8117,.132E-3,.65E-6,0
STARLINK-11209 [DTC],2024-171A,2026-05-23T11:38:42.384192,15.69700636,.0001163,53.1586,167.7426,71.8567,288.2578,0,U,61200,999,9705,.49976E-5,.17E-6,0
STARLINK-11257 [DTC],2024-171B,2026-05-23T13:03:19.759680,15.69697281,.0001131,53.1593,167.3894,79.2829,280.8316,0,U,61201,999,9615,.10533E-4,.687E-5,0
STARLINK-11309 [DTC],2024-171C,2026-05-23T19:02:59.352864,15.69705477,.0000533,53.1577,166.1030,120.1629,239.9441,0,U,61202,999,9619,.26884E-5,-.262E-5,0
STARLINK-11292 [DTC],2024-171D,2026-05-23T18:55:55.581600,15.69709167,.0000595,53.1581,166.0695,114.3465,245.7615,0,U,61203,999,9619,-.19038E-5,-.818E-5,0
STARLINK-11302 [DTC],2024-171E,2026-05-23T18:48:52.282080,15.69703218,.0000749,53.1581,166.0371,85.2143,274.8960,0,U,61204,999,9619,-.34579E-5,-.1007E-4,0
STARLINK-11277 [DTC],2024-171F,2026-05-24T00:41:28.277664,15.69703954,.0001138,53.1586,164.7160,70.3498,289.7642,0,U,61205,999,9623,.11397E-4,.792E-5,0
STARLINK-11279 [DTC],2024-171G,2026-05-23T18:27:40.048992,15.69692770,.0000799,53.1580,165.9381,68.3068,291.8035,0,U,61206,999,9619,.2781E-4,.278E-4,0
STARLINK-11091 [DTC],2024-171H,2026-05-23T18:41:48.250752,15.69702797,.0001248,53.1611,166.0074,91.6234,268.4927,0,U,61207,999,9619,.80542E-5,.387E-5,0
STARLINK-11291 [DTC],2024-171J,2026-05-23T18:20:36.613824,15.69701790,.0001083,53.1609,165.9051,92.6013,267.5129,0,U,61208,999,9619,.19772E-5,-.349E-5,0
STARLINK-11304 [DTC],2024-171K,2026-05-23T18:13:32.503872,15.69712949,.0000902,53.1591,165.8706,103.9340,256.1778,0,U,61209,999,9710,.4946E-5,.11E-6,0
STARLINK-11307 [DTC],2024-171L,2026-05-23T08:56:31.826112,15.69703171,.0000945,53.1601,168.4568,81.3582,278.7543,0,U,61210,999,9612,-.26027E-5,-.903E-5,0
STARLINK-11298 [DTC],2024-171M,2026-05-23T08:49:27.873408,15.69701768,.0000671,53.1587,168.4236,70.2516,289.8574,0,U,61211,999,9612,.213E-5,-.33E-5,0
STARLINK-11310 [DTC],2024-171N,2026-05-23T11:45:45.637056,15.69706800,.0001083,53.1579,167.7627,102.8291,257.2848,0,U,61212,999,9614,.84855E-5,.439E-5,0
STARLINK-32386,2024-171P,2026-05-23T20:19:21.192384,15.34016938,.000074,53.1607,332.7597,111.9659,248.1422,0,U,61213,999,9388,.17176E-2,.57397E-3,0
STARLINK-32392,2024-171Q,2026-05-23T22:08:34.747296,15.34389001,.0001256,53.1624,332.5222,98.6124,261.5020,0,U,61214,999,9389,.26512E-4,.519E-5,0
STARLINK-32436,2024-171R,2026-05-23T22:26:34.005120,15.30197318,.0001157,53.1613,332.5982,76.9466,283.1664,0,U,61215,999,9389,.23214E-4,.328E-5,0
STARLINK-32425,2024-171S,2026-05-23T20:16:12.493056,15.30191814,.000114,53.1605,333.4573,99.8586,260.2543,0,U,61216,999,9387,-.14104E-4,-.777E-5,0
STARLINK-32342,2024-171T,2026-05-23T23:09:05.437728,15.30213018,.0001144,53.1616,332.7823,102.5200,257.5929,0,U,61217,999,9480,.74869E-4,.186E-4,0
STARLINK-32423,2024-171U,2026-05-23T21:38:06.233856,15.30188115,.0001266,53.1614,333.1016,90.8564,269.2582,0,U,61218,999,9479,.4641E-4,.1015E-4,0
STARLINK-32248,2024-171V,2026-05-24T04:00:01.998720,15.31717873,.0001265,53.1606,332.0424,65.6746,226.0948,0,U,61219,999,585,-.85931E-3,-.2695E-3,0
