JILIN-01 KUANFU 02B 1   
1 61189U 24169A   26144.17506876  .00002683  00000+0  17518-3 0  9997
2 61189  97.5565 234.0638 0004254 117.2084 242.9578 15.08688407 92205
JILIN-01 KUANFU 02B 2   
1 61190U 24169B   26144.21972390  .00002471  00000+0  16172-3 0  9992
2 61190  97.5554 233.4998 0008136  97.9335 262.2817 15.08645897 92211
JILIN-01 KUANFU 02B 3   
1 61191U 24169C   26144.23017639  .00002430  00000+0  15866-3 0  9995
2 61191  97.5552 233.9419 0014397  36.6294 323.5916 15.08701632 92214
JILIN-01 KUANFU 02B 4   
1 61192U 24169D   26144.19795521  .00003444  00000+0  22355-3 0  9991
2 61192  97.5516 233.4623 0012965 354.0698   6.0375 15.08661739 92216
JILIN-01 KUANFU 02B 5   
1 61193U 24169E   26144.18650542  .00003080  00000+0  19997-3 0  9998
2 61193  97.5566 234.2126 0013466  19.3021 340.8715 15.08718259 92214
JILIN-01 KUANFU 02B 6   
1 61194U 24169F   26144.20886338  .00002926  00000+0  19014-3 0  9994
2 61194  97.5542 234.1434 0017541  48.1775 312.0948 15.08675732 92222
TIANQI-29               
1 61195U 24170A   26144.12755236  .00000056  00000+0  12623-3 0  9991
2 61195  44.8569 244.0011 0005587 327.7763  32.2726 13.99139271 85495
TIANQI-30               
1 61196U 24170B   26144.14559405  .00000061  00000+0  12943-3 0  9995
2 61196  44.8583 244.1764 0007274 337.4703  22.5807 13.99138438 85682
TIANQI-31               
1 61197U 24170C   26144.16443648  .00000053  00000+0  12401-3 0  9999
2 61197  44.8620 244.4677 0007775 314.7684  45.2514 13.99130807 85581
TIANQI-32               
1 61198U 24170D   26144.18049468  .00000065  00000+0  13200-3 0  9995
2 61198  44.8605 244.4939 0007924 311.4957  48.5194 13.99154303 81177
STARLINK-11209 [DTC]    
1 61200U 24171A   26143.48521278  .00000017  00000+0  49976-5 0  9994
2 61200  53.1586 167.7426 0001163  71.8567 288.2578 15.69700636 97051
STARLINK-11257 [DTC]    
1 61201U 24171B   26143.54397870  .00000687  00000+0  10533-4 0  9990
2 61201  53.1593 167.3894 0001131  79.2829 280.8316 15.69697281 96152
STARLINK-11309 [DTC]    
1 61202U 24171C   26143.79374251 -.00000262  00000+0  26884-5 0  9993
2 61202  53.1577 166.1030 0000533 120.1629 239.9441 15.69705477 96198
STARLINK-11292 [DTC]    
1 61203U 24171D   26143.78883775 -.00000818  00000+0 -19038-5 0  9990
2 61203  53.1581 166.0695 0000595 114.3465 245.7615 15.69709167 96199
STARLINK-11302 [DTC]    
1 61204U 24171E   26143.78393845 -.00001007  00000+0 -34579-5 0  9993
2 61204  53.1581 166.0371 0000749  85.2143 274.8960 15.69703218 96198
STARLINK-11277 [DTC]    
1 61205U 24171F   26144.02879951  .00000792  00000+0  11397-4 0  9999
2 61205  53.1586 164.7160 0001138  70.3498 289.7642 15.69703954 96230
STARLINK-11279 [DTC]    
1 61206U 24171G   26143.76921353  .00002780  00000+0  27810-4 0  9990
2 61206  53.1580 165.9381 0000799  68.3068 291.8035 15.69692770 96193
STARLINK-11091 [DTC]    
1 61207U 24171H   26143.77903068  .00000387  00000+0  80542-5 0  9998
2 61207  53.1611 166.0074 0001248  91.6234 268.4927 15.69702797 96195
STARLINK-11291 [DTC]    
1 61208U 24171J   26143.76431266 -.00000349  00000+0  19772-5 0  9990
2 61208  53.1609 165.9051 0001083  92.6013 267.5129 15.69701790 96195
STARLINK-11304 [DTC]    
1 61209U 24171K   26143.75940398  .00000011  00000+0  49460-5 0  9993
2 61209  53.1591 165.8706 0000902 103.9340 256.1778 15.69712949 97104
STARLINK-11307 [DTC]    
1 61210U 24171L   26143.37259058 -.00000903  00000+0 -26027-5 0  9995
2 61210  53.1601 168.4568 0000945  81.3582 278.7543 15.69703171 96125
STARLINK-11298 [DTC]    
1 61211U 24171M   26143.36768372 -.00000330  00000+0  21300-5 0  9991
2 61211  53.1587 168.4236 0000671  70.2516 289.8574 15.69701768 96128
STARLINK-11310 [DTC]    
1 61212U 24171N   26143.49011154  .00000439  00000+0  84855-5 0  9998
2 61212  53.1579 167.7627 0001083 102.8291 257.2848 15.69706800 96143
STARLINK-32386          
1 61213U 24171P   26143.84677306  .00057397  00000+0  17176-2 0  9999
2 61213  53.1607 332.7597 0000740 111.9659 248.1422 15.34016938 93887
STARLINK-32392          
1 61214U 24171Q   26143.92262439  .00000519  00000+0  26512-4 0  9996
2 61214  53.1624 332.5222 0001256  98.6124 261.5020 15.34389001 93899
STARLINK-32436          
1 61215U 24171R   26143.93511580  .00000328  00000+0  23214-4 0  9996
2 61215  53.1613 332.5982 0001157  76.9466 283.1664 15.30197318 93897
STARLINK-32425          
1 61216U 24171S   26143.84458904 -.00000777  00000+0 -14104-4 0  9995
2 61216  53.1605 333.4573 0001140  99.8586 260.2543 15.30191814 93879
STARLINK-32342          
1 61217U 24171T   26143.96464627  .00001860  00000+0  74869-4 0  9994
2 61217  53.1616 332.7823 0001144 102.5200 257.5929 15.30213018 94803
STARLINK-32423          
1 61218U 24171U   26143.90146104  .00001015  00000+0  46410-4 0  9999
2 61218  53.1614 333.1016 0001266  90.8564 269.2582 15.30188115 94790
STARLINK-32248          
1 61219U 24171V   26144.16668980 -.00026950  00000+0 -85931-3 0  9997
2 61219  53.1606 332.0424 0001265  65.6746 226.0948 15.31717873  5850
